[{"OBJECT_NAME":"STARLINK-32172","OBJECT_ID":"2024-183K","EPOCH":"2026-03-09T11:51:18.217440","MEAN_MOTION":15.3018809,"ECCENTRICITY":0.00011252,"INCLINATION":53.1601,"RA_OF_ASC_NODE":143.2666,"ARG_OF_PERICENTER":87.2122,"MEAN_ANOMALY":272.9008,"EPHEMERIS_TYPE":0,"CLASSIFICATION_TYPE":"U","NORAD_CAT_ID":61518,"ELEMENT_SET_NO":999,"REV_AT_EPOCH":7962,"BSTAR":4.1759336e-5,"MEAN_MOTION_DOT":8.77e-6,"MEAN_MOTION_DDOT":0},{"OBJECT_NAME":"USA 55","OBJECT_ID":"1990-028B","EPOCH":"2026-03-09T23:32:27.967200","MEAN_MOTION":15.43003152,"ECCENTRICITY":0.00579189,"INCLINATION":94.0887,"RA_OF_ASC_NODE":87.6293,"ARG_OF_PERICENTER":152.9949,"MEAN_ANOMALY":207.4341,"EPHEMERIS_TYPE":0,"CLASSIFICATION_TYPE":"U","NORAD_CAT_ID":20547,"ELEMENT_SET_NO":999,"REV_AT_EPOCH":98658,"BSTAR":0.00013659834,"MEAN_MOTION_DOT":6.373e-5,"MEAN_MOTION_DDOT":0}]
